{
  "type": "FeatureCollection",
  "features": [
    {
      "type": "Feature",
      "properties": {
        "norad_id": 29486,
        "name": "GPS BIIRM-2 (PRN 31)",
        "group": "gps-ops",
        "lat": 30.81239061945987,
        "lon": -45.966762243239366,
        "alt_km": 20172.569882176194,
        "timestamp": "2025-12-04T17:48:40.424949+00:00",
        "meta_object_name": "GPS BIIRM-2 (PRN 31)",
        "meta_object_id": "2006-042A",
        "meta_epoch": "2025-12-03T19:13:38.940960",
        "meta_mean_motion": 2.00554392,
        "meta_eccentricity": 0.01073584,
        "meta_inclination": 54.6928,
        "meta_ra_of_asc_node": 159.0956,
        "meta_arg_of_pericenter": 51.7428,
        "meta_mean_anomaly": 128.6988,
        "meta_ephemeris_type": 0,
        "meta_classification_type": "U",
        "meta_norad_cat_id": 29486,
        "meta_element_set_no": 999,
        "meta_rev_at_epoch": 14047,
        "meta_bstar": 0,
        "meta_mean_motion_dot": 1e-06,
        "meta_mean_motion_ddot": 0,
        "tle_line1": "1 29486U 06042A   25337.80114515  .00000100  00000+0  00000+0 0  9995",
        "tle_line2": "2 29486  54.6928 159.0956 0107358  51.7428 128.6988  2.00554392140479"
      },
      "geometry": {
        "type": "Point",
        "coordinates": [
          -45.966762243239366,
          30.81239061945987
        ]
      }
    },
    {
      "type": "Feature",
      "properties": {
        "norad_id": 29601,
        "name": "GPS BIIRM-3 (PRN 12)",
        "group": "gps-ops",
        "lat": -14.558894320363066,
        "lon": 52.20636035431435,
        "alt_km": 20263.128162356283,
        "timestamp": "2025-12-04T17:48:40.424961+00:00",
        "meta_object_name": "GPS BIIRM-3 (PRN 12)",
        "meta_object_id": "2006-052A",
        "meta_epoch": "2025-12-03T11:22:11.769312",
        "meta_mean_motion": 2.00572797,
        "meta_eccentricity": 0.00875469,
        "meta_inclination": 54.9733,
        "meta_ra_of_asc_node": 221.766,
        "meta_arg_of_pericenter": 87.3435,
        "meta_mean_anomaly": 273.7468,
        "meta_ephemeris_type": 0,
        "meta_classification_type": "U",
        "meta_norad_cat_id": 29601,
        "meta_element_set_no": 999,
        "meta_rev_at_epoch": 13948,
        "meta_bstar": 0,
        "meta_mean_motion_dot": 6.2e-07,
        "meta_mean_motion_ddot": 0,
        "tle_line1": "1 29601U 06052A   25337.47374733  .00000062  00000+0  00000+0 0  9995",
        "tle_line2": "2 29601  54.9733 221.7660 0087546  87.3435 273.7468  2.00572797139486"
      },
      "geometry": {
        "type": "Point",
        "coordinates": [
          52.20636035431435,
          -14.558894320363066
        ]
      }
    },
    {
      "type": "Feature",
      "properties": {
        "norad_id": 32260,
        "name": "GPS BIIRM-4 (PRN 15)",
        "group": "gps-ops",
        "lat": -19.650576775773704,
        "lon": 73.02292095022143,
        "alt_km": 20325.384395713587,
        "timestamp": "2025-12-04T17:48:40.424973+00:00",
        "meta_object_name": "GPS BIIRM-4 (PRN 15)",
        "meta_object_id": "2007-047A",
        "meta_epoch": "2025-12-02T18:46:05.230272",
        "meta_mean_motion": 2.00564824,
        "meta_eccentricity": 0.01643753,
        "meta_inclination": 53.9483,
        "meta_ra_of_asc_node": 88.1698,
        "meta_arg_of_pericenter": 85.1293,
        "meta_mean_anomaly": 276.722,
        "meta_ephemeris_type": 0,
        "meta_classification_type": "U",
        "meta_norad_cat_id": 32260,
        "meta_element_set_no": 999,
        "meta_rev_at_epoch": 13287,
        "meta_bstar": 0,
        "meta_mean_motion_dot": -1.7e-07,
        "meta_mean_motion_ddot": 0,
        "tle_line1": "1 32260U 07047A   25336.78200498 -.00000017  00000+0  00000+0 0  9995",
        "tle_line2": "2 32260  53.9483  88.1698 0164375  85.1293 276.7220  2.00564824132879"
      },
      "geometry": {
        "type": "Point",
        "coordinates": [
          73.02292095022143,
          -19.650576775773704
        ]
      }
    },
    {
      "type": "Feature",
      "properties": {
        "norad_id": 32384,
        "name": "GPS BIIRM-5 (PRN 29)",
        "group": "gps-ops",
        "lat": 52.201406032342014,
        "lon": 38.322874232233566,
        "alt_km": 20128.112336715072,
        "timestamp": "2025-12-04T17:48:40.424985+00:00",
        "meta_object_name": "GPS BIIRM-5 (PRN 29)",
        "meta_object_id": "2007-062A",
        "meta_epoch": "2025-12-02T20:24:02.738880",
        "meta_mean_motion": 2.00576658,
        "meta_eccentricity": 0.00322118,
        "meta_inclination": 55.191,
        "meta_ra_of_asc_node": 282.0427,
        "meta_arg_of_pericenter": 162.849,
        "meta_mean_anomaly": 16.9412,
        "meta_ephemeris_type": 0,
        "meta_classification_type": "U",
        "meta_norad_cat_id": 32384,
        "meta_element_set_no": 999,
        "meta_rev_at_epoch": 13157,
        "meta_bstar": 0,
        "meta_mean_motion_dot": -4.3e-07,
        "meta_mean_motion_ddot": 0,
        "tle_line1": "1 32384U 07062A   25336.85003170 -.00000043  00000+0  00000+0 0  9994",
        "tle_line2": "2 32384  55.1910 282.0427 0032211 162.8490  16.9412  2.00576658131576"
      },
      "geometry": {
        "type": "Point",
        "coordinates": [
          38.322874232233566,
          52.201406032342014
        ]
      }
    },
    {
      "type": "Feature",
      "properties": {
        "norad_id": 32711,
        "name": "GPS BIIRM-6 (PRN 07)",
        "group": "gps-ops",
        "lat": 25.534478564098293,
        "lon": 177.65329148331185,
        "alt_km": 20626.588928697103,
        "timestamp": "2025-12-04T17:48:40.424996+00:00",
        "meta_object_name": "GPS BIIRM-6 (PRN 07)",
        "meta_object_id": "2008-012A",
        "meta_epoch": "2025-12-03T04:49:23.446848",
        "meta_mean_motion": 2.00565082,
        "meta_eccentricity": 0.02020764,
        "meta_inclination": 54.4757,
        "meta_ra_of_asc_node": 157.7537,
        "meta_arg_of_pericenter": 244.8436,
        "meta_mean_anomaly": 113.0855,
        "meta_ephemeris_type": 0,
        "meta_classification_type": "U",
        "meta_norad_cat_id": 32711,
        "meta_element_set_no": 999,
        "meta_rev_at_epoch": 12982,
        "meta_bstar": 0,
        "meta_mean_motion_dot": 1.08e-06,
        "meta_mean_motion_ddot": 0,
        "tle_line1": "1 32711U 08012A   25337.20096582  .00000108  00000+0  00000+0 0  9994",
        "tle_line2": "2 32711  54.4757 157.7537 0202076 244.8436 113.0855  2.00565082129824"
      },
      "geometry": {
        "type": "Point",
        "coordinates": [
          177.65329148331185,
          25.534478564098293
        ]
      }
    },
    {
      "type": "Feature",
      "properties": {
        "norad_id": 35752,
        "name": "GPS BIIRM-8 (PRN 05)",
        "group": "gps-ops",
        "lat": 39.77064978668898,
        "lon": 69.13253730845075,
        "alt_km": 20058.990429914156,
        "timestamp": "2025-12-04T17:48:40.425008+00:00",
        "meta_object_name": "GPS BIIRM-8 (PRN 05)",
        "meta_object_id": "2009-043A",
        "meta_epoch": "2025-12-01T04:42:32.815296",
        "meta_mean_motion": 2.00566259,
        "meta_eccentricity": 0.00521242,
        "meta_inclination": 56.0822,
        "meta_ra_of_asc_node": 35.2386,
        "meta_arg_of_pericenter": 82.0997,
        "meta_mean_anomaly": 288.3285,
        "meta_ephemeris_type": 0,
        "meta_classification_type": "U",
        "meta_norad_cat_id": 35752,
        "meta_element_set_no": 999,
        "meta_rev_at_epoch": 11939,
        "meta_bstar": 0,
        "meta_mean_motion_dot": -6.6e-07,
        "meta_mean_motion_ddot": 0,
        "tle_line1": "1 35752U 09043A   25335.19621314 -.00000066  00000+0  00000+0 0  9994",
        "tle_line2": "2 35752  56.0822  35.2386 0052124  82.0997 288.3285  2.00566259119397"
      },
      "geometry": {
        "type": "Point",
        "coordinates": [
          69.13253730845075,
          39.77064978668898
        ]
      }
    },
    {
      "type": "Feature",
      "properties": {
        "norad_id": 36585,
        "name": "GPS BIIF-1  (PRN 25)",
        "group": "gps-ops",
        "lat": 7.441512763383396,
        "lon": 31.02127856531269,
        "alt_km": 20269.84358972609,
        "timestamp": "2025-12-04T17:48:40.425019+00:00",
        "meta_object_name": "GPS BIIF-1  (PRN 25)",
        "meta_object_id": "2010-022A",
        "meta_epoch": "2025-12-04T06:16:58.952352",
        "meta_mean_motion": 2.00552666,
        "meta_eccentricity": 0.01257612,
        "meta_inclination": 54.3017,
        "meta_ra_of_asc_node": 216.4159,
        "meta_arg_of_pericenter": 64.9818,
        "meta_mean_anomaly": 117.6828,
        "meta_ephemeris_type": 0,
        "meta_classification_type": "U",
        "meta_norad_cat_id": 36585,
        "meta_element_set_no": 999,
        "meta_rev_at_epoch": 11368,
        "meta_bstar": 0,
        "meta_mean_motion_dot": 7e-07,
        "meta_mean_motion_ddot": 0,
        "tle_line1": "1 36585U 10022A   25338.26179343  .00000070  00000+0  00000+0 0  9993",
        "tle_line2": "2 36585  54.3017 216.4159 0125761  64.9818 117.6828  2.00552666113689"
      },
      "geometry": {
        "type": "Point",
        "coordinates": [
          31.02127856531269,
          7.441512763383396
        ]
      }
    }
  ]
}